NORAD_CAT_ID,OBJECT_NAME,OBJECT_TYPE,EPOCH,MEAN_MOTION,ECCENTRICITY,INCLINATION,RA_OF_ASC_NODE,ARG_OF_PERICENTER,MEAN_ANOMALY,BSTAR,MEAN_MOTION_DOT,MEAN_MOTION_DDOT,TLE_LINE0,TLE_LINE1,TLE_LINE2,SEMIMAJOR_AXIS,PERIOD,APOGEE,PERIGEE,DECAYED
52675.0,STARLINK-3934,PAYLOAD,2022-12-17 11:41:46,15.08831074,0.0002864,53.2183,33.2723,24.1477,335.9649,-1.7355999999999998e-05,-5.65e-06,0.0,0 STARLINK-3934,1 52675U 22053V   22351.48734472 -.00000565  00000-0 -17356-4 0  9993,2 52675  53.2183  33.2723 0002864  24.1477 335.9649 15.08831074 33309,6917.908,95.438,541.754,537.7909999999998,0.0
52675.0,STARLINK-3934,PAYLOAD,2022-12-18 09:57:10,15.08835257,0.0002892,53.2191,29.1096,23.3761,336.7362,9.3482e-05,1.199e-05,0.0,0 STARLINK-3934,1 52675U 22053V   22352.41470894  .00001199  00000-0  93482-4 0  9998,2 52675  53.2191  29.1096 0002892  23.3761 336.7362 15.08835257 33019,6917.895,95.438,541.761,537.759,0.0
52675.0,STARLINK-3934,PAYLOAD,2022-12-18 13:07:56,15.08837608,0.0002832,53.219,28.5147,24.5063,335.6064,0.00012712,1.735e-05,0.0,0 STARLINK-3934,1 52675U 22053V   22352.54718739  .00001735  00000-0  12712-3 0  9997,2 52675  53.2190  28.5147 0002832  24.5063 335.6064 15.08837608 33468,6917.888000000001,95.438,541.712,537.794,0.0
52675.0,STARLINK-3934,PAYLOAD,2022-12-18 19:29:29,15.08835232,0.0002835,53.219,27.3252,24.3289,335.7837,3.0119e-05,1.91e-06,0.0,0 STARLINK-3934,1 52675U 22053V   22352.81215240  .00000191  00000-0  30119-4 0  9993,2 52675  53.2190  27.3252 0002835  24.3289 335.7837 15.08835232 33508,6917.895,95.438,541.721,537.799,0.0
52675.0,STARLINK-3934,PAYLOAD,2022-12-19 06:37:12,15.0883506,0.0002875,53.2192,25.2443,26.1937,333.92,0.00013931,1.929e-05,0.0,0 STARLINK-3934,1 52675U 22053V   22353.27583392  .00001929  00000-0  13931-3 0  9992,2 52675  53.2192  25.2443 0002875  26.1937 333.9200 15.08835060 33573,6917.895,95.438,541.749,537.7719999999998,0.0
52675.0,STARLINK-3934,PAYLOAD,2022-12-19 19:20:17,15.08840071,0.0002811,53.2185,22.8653,28.5486,331.566,0.00018786,2.703e-05,0.0,0 STARLINK-3934,1 52675U 22053V   22353.80575288  .00002703  00000-0  18786-3 0  9990,2 52675  53.2185  22.8653 0002811  28.5486 331.5660 15.08840071 33657,6917.88,95.438,541.69,537.8009999999998,0.0
52675.0,STARLINK-3934,PAYLOAD,2022-12-20 11:14:08,15.08851642,0.0002767,53.2186,19.8917,30.7979,329.3175,0.0002901,4.333e-05,0.0,0 STARLINK-3934,1 52675U 22053V   22354.46814871  .00004333  00000-0  29010-3 0  9990,2 52675  53.2186  19.8917 0002767  30.7979 329.3175 15.08851642 33752,6917.845,95.437,541.624,537.7959999999998,0.0
52675.0,STARLINK-3934,PAYLOAD,2022-12-21 03:08:00,15.08831817,0.0002685,53.2185,16.9183,34.9731,325.1437,-4.6329e-05,-1.026e-05,0.0,0 STARLINK-3934,1 52675U 22053V   22355.13055810 -.00001026  00000-0 -46329-4 0  9996,2 52675  53.2185  16.9183 0002685  34.9731 325.1437 15.08831817 33426,6917.905,95.438,541.628,537.913,0.0
52675.0,STARLINK-3934,PAYLOAD,2022-12-21 09:29:32,15.08836612,0.0002581,53.2182,15.7282,37.4372,322.68,5.9329e-05,6.56e-06,0.0,0 STARLINK-3934,1 52675U 22053V   22355.39551854  .00000656  00000-0  59329-4 0  9993,2 52675  53.2182  15.7282 0002581  37.4372 322.6800 15.08836612 33899,6917.891,95.438,541.5409999999998,537.97,0.0
52675.0,STARLINK-3934,PAYLOAD,2022-12-22 04:34:10,15.08839179,0.0002606,53.218,12.1602,39.2858,320.8323,0.00018932,2.726e-05,0.0,0 STARLINK-3934,1 52675U 22053V   22356.19040164  .00002726  00000-0  18932-3 0  9993,2 52675  53.2180  12.1602 0002606  39.2858 320.8323 15.08839179 33588,6917.8830000000025,95.438,541.5509999999998,537.945,0.0
52675.0,STARLINK-3934,PAYLOAD,2022-12-22 09:20:20,15.08842865,0.0002609,53.2184,11.2681,41.1062,319.0127,0.00033119,4.987e-05,0.0,0 STARLINK-3934,1 52675U 22053V   22356.38912147  .00004987  00000-0  33119-3 0  9998,2 52675  53.2184  11.2681 0002609  41.1062 319.0127 15.08842865 34041,6917.871999999999,95.437,541.5419999999998,537.932,0.0
52675.0,STARLINK-3934,PAYLOAD,2022-12-22 12:31:06,15.08844939,0.0002603,53.2184,10.6733,41.2208,318.8981,0.00037457,5.679e-05,0.0,0 STARLINK-3934,1 52675U 22053V   22356.52160091  .00005679  00000-0  37457-3 0  9995,2 52675  53.2184  10.6733 0002603  41.2208 318.8981 15.08844939 34060,6917.865,95.437,541.531,537.93,0.0
52675.0,STARLINK-3934,PAYLOAD,2022-12-23 01:14:11,15.08854671,0.0002598,53.2184,8.2941,42.1398,317.9793,0.00050726,7.797e-05,0.0,0 STARLINK-3934,1 52675U 22053V   22357.05151686  .00007797  00000-0  50726-3 0  9991,2 52675  53.2184   8.2941 0002598  42.1398 317.9793 15.08854671 33713,6917.8359999999975,95.437,541.498,537.903,0.0
52675.0,STARLINK-3934,PAYLOAD,2022-12-23 12:21:52,15.08854462,0.0002612,53.2184,6.2125,41.3161,318.8029,0.0003451,5.21e-05,0.0,0 STARLINK-3934,1 52675U 22053V   22357.51519365  .00005210  00000-0  34510-3 0  9995,2 52675  53.2184   6.2125 0002612  41.3161 318.8029 15.08854462 34217,6917.8359999999975,95.437,541.508,537.894,0.0
52675.0,STARLINK-3934,PAYLOAD,2022-12-24 04:15:43,15.08855425,0.00026,53.2184,3.2387,41.9841,318.135,0.00019166,2.765e-05,0.0,0 STARLINK-3934,1 52675U 22053V   22358.17758793  .00002765  00000-0  19166-3 0  9990,2 52675  53.2184   3.2387 0002600  41.9841 318.1350 15.08855425 33884,6917.833000000001,95.437,541.497,537.9,0.0
52675.0,STARLINK-3934,PAYLOAD,2022-12-24 10:37:16,15.0884723,0.0002439,53.2184,2.0498,38.2241,321.8924,6.9094e-05,8.12e-06,0.0,0 STARLINK-3934,1 52675U 22053V   22358.44254990  .00000812  00000-0  69094-4 0  9997,2 52675  53.2184   2.0498 0002439  38.2241 321.8924 15.08847230 33925,6917.858,95.437,541.411,538.036,0.0
52675.0,STARLINK-3934,PAYLOAD,2022-12-24 16:58:48,15.08849244,0.0002537,53.2186,0.8605,39.6217,320.496,5.3082e-05,5.57e-06,0.0,0 STARLINK-3934,1 52675U 22053V   22358.70750748  .00000557  00000-0  53082-4 0  9994,2 52675  53.2186   0.8605 0002537  39.6217 320.4960 15.08849244 34394,6917.852,95.437,541.472,537.962,0.0
52675.0,STARLINK-3934,PAYLOAD,2022-12-25 00:55:44,15.08838559,0.0002506,53.2183,359.3744,38.9429,321.1743,-6.6382e-05,-1.345e-05,0.0,0 STARLINK-3934,1 52675U 22053V   22359.03871185 -.00001345  00000-0 -66382-4 0  9995,2 52675  53.2183 359.3744 0002506  38.9429 321.1743 15.08838559 34013,6917.885,95.438,541.4830000000002,538.016,0.0
52675.0,STARLINK-3934,PAYLOAD,2022-12-25 10:28:04,15.08826124,0.0002452,53.2193,357.5897,41.3236,318.7942,-0.00010432,-1.948e-05,0.0,0 STARLINK-3934,1 52675U 22053V   22359.43616784 -.00001948  00000-0 -10432-3 0  9994,2 52675  53.2193 357.5897 0002452  41.3236 318.7942 15.08826124 34071,6917.9230000000025,95.438,541.484,538.092,0.0
52675.0,STARLINK-3934,PAYLOAD,2022-12-25 23:11:09,15.08835206,0.0002373,53.2192,355.2109,40.0732,320.0435,-5.9268e-05,-1.231e-05,0.0,0 STARLINK-3934,1 52675U 22053V   22359.96608173 -.00001231  00000-0 -59268-4 0  9991,2 52675  53.2192 355.2109 0002373  40.0732 320.0435 15.08835206 34153,6917.895,95.438,541.4019999999998,538.118,0.0
52675.0,STARLINK-3934,PAYLOAD,2022-12-26 16:40:23,15.08842831,0.0002426,53.2194,351.9397,41.1701,318.9474,0.00015342,2.154e-05,0.0,0 STARLINK-3934,1 52675U 22053V   22360.69471385  .00002154  00000-0  15342-3 0  9993,2 52675  53.2194 351.9397 0002426  41.1701 318.9474 15.08842831 34267,6917.871999999999,95.437,541.415,538.058,0.0
52675.0,STARLINK-3934,PAYLOAD,2022-12-27 08:34:14,15.08843059,0.000237,53.2196,348.9657,40.4737,319.6432,0.00027064,4.022e-05,0.0,0 STARLINK-3934,1 52675U 22053V   22361.35711005  .00004022  00000-0  27064-3 0  9993,2 52675  53.2196 348.9657 0002370  40.4737 319.6432 15.08843059 34796,6917.871,95.437,541.376,538.097,0.0
52675.0,STARLINK-3934,PAYLOAD,2022-12-27 16:31:09,15.08851911,0.000243,53.2195,347.4791,41.1612,318.9563,0.00029691,4.442e-05,0.0,0 STARLINK-3934,1 52675U 22053V   22361.68830421  .00004442  00000-0  29691-3 0  9997,2 52675  53.2195 347.4791 0002430  41.1612 318.9563 15.08851911 34844,6917.844,95.437,541.39,538.028,0.0
52675.0,STARLINK-3934,PAYLOAD,2022-12-28 00:28:04,15.08861266,0.0002381,53.2202,345.9908,42.3949,317.7227,0.00019496,2.818e-05,0.0,0 STARLINK-3934,1 52675U 22053V   22362.01949956  .00002818  00000-0  19496-3 0  9996,2 52675  53.2202 345.9908 0002381  42.3949 317.7227 15.08861266 34463,6917.815,95.436,541.328,538.033,0.0
52675.0,STARLINK-3934,PAYLOAD,2022-12-29 05:05:02,15.08836663,0.0002406,53.2189,340.6394,41.5854,318.5321,-0.00015818,-2.805e-05,0.0,0 STARLINK-3934,1 52675U 22053V   22363.21182906 -.00002805  00000-0 -15818-3 0  9995,2 52675  53.2189 340.6394 0002406  41.5854 318.5321 15.08836663 34649,6917.891,95.438,541.42,538.091,0.0
52675.0,STARLINK-3934,PAYLOAD,2022-12-29 09:51:12,15.08836138,0.0001797,53.2201,339.7444,41.6223,318.4906,-0.00011889,-2.18e-05,0.0,0 STARLINK-3934,1 52675U 22053V   22363.41055672 -.00002180  00000-0 -11889-3 0  9996,2 52675  53.2201 339.7444 0001797  41.6223 318.4906 15.08836138 35109,6917.892,95.438,541.0,538.514,0.0
52675.0,STARLINK-3934,PAYLOAD,2022-12-29 16:12:44,15.08833529,0.0001861,53.2201,338.5556,40.1508,319.9621,-0.00015283,-2.719e-05,0.0,0 STARLINK-3934,1 52675U 22053V   22363.67552001 -.00002719  00000-0 -15283-3 0  9992,2 52675  53.2201 338.5556 0001861  40.1508 319.9621 15.08833529 34719,6917.9,95.438,541.053,538.4780000000002,0.0
52675.0,STARLINK-3934,PAYLOAD,2022-12-30 01:45:03,15.08839175,0.0002065,53.2193,336.7743,33.6134,326.4989,-2.5011e-05,-6.86e-06,0.0,0 STARLINK-3934,1 52675U 22053V   22364.07295349 -.00000686  00000-0 -25011-4 0  9998,2 52675  53.2193 336.7743 0002065  33.6134 326.4989 15.08839175 34775,6917.8830000000025,95.438,541.1759999999998,538.319,0.0
52675.0,STARLINK-3934,PAYLOAD,2022-12-30 09:41:58,15.08839337,0.0002214,53.2192,335.288,32.4905,327.6223,0.00028918,4.317e-05,0.0,0 STARLINK-3934,1 52675U 22053V   22364.40415013  .00004317  00000-0  28918-3 0  9998,2 52675  53.2192 335.2880 0002214  32.4905 327.6223 15.08839337 35257,6917.882,95.438,541.279,538.216,0.0
